{"epoch":1784799577,"count":18318,"objects":[{"id":"32382","name":"RADARSAT 2","type":"PAYLOAD","l1":"1 32382U 07061A   26204.00283456 -.00000140  00000-0 -37343-4 0  9995","l2":"2 32382  98.5795 210.4244 0001305  87.7182 272.4150 14.29980151971077"}]}