{"fetched_at":"2026-07-23T07:05:57.919Z","source":"https://celestrak.org/NORAD/elements/gp.php?NAME=RADARSAT&FORMAT=JSON","constellation":"radarsat-2","records":[{"OBJECT_NAME":"RADARSAT-2","OBJECT_ID":"2007-061A","EPOCH":"2026-07-23T00:04:04.905984","CLASSIFICATION_TYPE":"U","MEAN_MOTION":14.29980151,"ECCENTRICITY":0.00013053,"INCLINATION":98.5795,"RA_OF_ASC_NODE":210.4244,"ARG_OF_PERICENTER":87.7182,"MEAN_ANOMALY":272.415,"EPHEMERIS_TYPE":0,"NORAD_CAT_ID":32382,"ELEMENT_SET_NO":999,"REV_AT_EPOCH":97107,"BSTAR":-0.000037342504,"MEAN_MOTION_DOT":-0.0000014,"MEAN_MOTION_DDOT":0}]}
